CCSDS_OMM_VERS = 2.0
CREATION_DATE  = 
ORIGINATOR     = 

OBJECT_NAME    = SL-4 R/B
OBJECT_ID      = 2014-021B
CENTER_NAME    = EARTH
REF_FRAME      = TEME
TIME_SYSTEM    = UTC
MEAN_ELEMENT_THEORY = SGP/SGP4

EPOCH          = 2026-03-01T21:38:40.547616
MEAN_MOTION    = 15.38870760
ECCENTRICITY   = .00982506
INCLINATION    = 51.6075
RA_OF_ASC_NODE = 15.2619
ARG_OF_PERICENTER = 74.6002
MEAN_ANOMALY   = 286.5811

EPHEMERIS_TYPE = 0
CLASSIFICATION_TYPE = U
NORAD_CAT_ID   = 39679
ELEMENT_SET_NO = 999
REV_AT_EPOCH   = 65507
BSTAR          = .37972368E-3
MEAN_MOTION_DOT = .17134E-3
MEAN_MOTION_DDOT = 0

CCSDS_OMM_VERS = 2.0
CREATION_DATE  = 
ORIGINATOR     = 

OBJECT_NAME    = ALOS-2
OBJECT_ID      = 2014-029A
CENTER_NAME    = EARTH
REF_FRAME      = TEME
TIME_SYSTEM    = UTC
MEAN_ELEMENT_THEORY = SGP/SGP4

EPOCH          = 2026-03-01T22:35:12.507936
MEAN_MOTION    = 14.79463522
ECCENTRICITY   = .00014606
INCLINATION    = 97.9200
RA_OF_ASC_NODE = 159.6503
ARG_OF_PERICENTER = 95.1304
MEAN_ANOMALY   = 265.0074

EPHEMERIS_TYPE = 0
CLASSIFICATION_TYPE = U
NORAD_CAT_ID   = 39766
ELEMENT_SET_NO = 999
REV_AT_EPOCH   = 63572
BSTAR          = .18205765E-3
MEAN_MOTION_DOT = .1308E-4
MEAN_MOTION_DDOT = 0

CCSDS_OMM_VERS = 2.0
CREATION_DATE  = 
ORIGINATOR     = 

OBJECT_NAME    = YAOGAN-29
OBJECT_ID      = 2015-069A
CENTER_NAME    = EARTH
REF_FRAME      = TEME
TIME_SYSTEM    = UTC
MEAN_ELEMENT_THEORY = SGP/SGP4

EPOCH          = 2026-03-01T23:13:28.019424
MEAN_MOTION    = 14.82985221
ECCENTRICITY   = .00023245
INCLINATION    = 98.0158
RA_OF_ASC_NODE = 89.3763
ARG_OF_PERICENTER = 49.5778
MEAN_ANOMALY   = 310.5637

EPHEMERIS_TYPE = 0
CLASSIFICATION_TYPE = U
NORAD_CAT_ID   = 41038
ELEMENT_SET_NO = 999
REV_AT_EPOCH   = 55473
BSTAR          = .93500432E-4
MEAN_MOTION_DOT = .705E-5
MEAN_MOTION_DDOT = 0

CCSDS_OMM_VERS = 2.0
CREATION_DATE  = 
ORIGINATOR     = 

OBJECT_NAME    = ASTRO-H (HITOMI)
OBJECT_ID      = 2016-012A
CENTER_NAME    = EARTH
REF_FRAME      = TEME
TIME_SYSTEM    = UTC
MEAN_ELEMENT_THEORY = SGP/SGP4

EPOCH          = 2026-03-01T23:11:04.153056
MEAN_MOTION    = 15.09936999
ECCENTRICITY   = .00100253
INCLINATION    = 31.0002
RA_OF_ASC_NODE = 46.3865
ARG_OF_PERICENTER = 254.4605
MEAN_ANOMALY   = 105.4927

EPHEMERIS_TYPE = 0
CLASSIFICATION_TYPE = U
NORAD_CAT_ID   = 41337
ELEMENT_SET_NO = 999
REV_AT_EPOCH   = 55106
BSTAR          = .23030783E-3
MEAN_MOTION_DOT = .3927E-4
MEAN_MOTION_DDOT = 0

CCSDS_OMM_VERS = 2.0
CREATION_DATE  = 
ORIGINATOR     = 

OBJECT_NAME    = HXMT (HUIYAN)
OBJECT_ID      = 2017-034A
CENTER_NAME    = EARTH
REF_FRAME      = TEME
TIME_SYSTEM    = UTC
MEAN_ELEMENT_THEORY = SGP/SGP4

EPOCH          = 2026-03-02T00:14:47.539680
MEAN_MOTION    = 15.17343726
ECCENTRICITY   = .00320389
INCLINATION    = 43.0148
RA_OF_ASC_NODE = 59.3630
ARG_OF_PERICENTER = 188.6062
MEAN_ANOMALY   = 171.4240

EPHEMERIS_TYPE = 0
CLASSIFICATION_TYPE = U
NORAD_CAT_ID   = 42758
ELEMENT_SET_NO = 999
REV_AT_EPOCH   = 48137
BSTAR          = .3049152E-3
MEAN_MOTION_DOT = .6039E-4
MEAN_MOTION_DDOT = 0

CCSDS_OMM_VERS = 2.0
CREATION_DATE  = 
ORIGINATOR     = 

OBJECT_NAME    = SAOCOM 1A
OBJECT_ID      = 2018-076A
CENTER_NAME    = EARTH
REF_FRAME      = TEME
TIME_SYSTEM    = UTC
MEAN_ELEMENT_THEORY = SGP/SGP4

EPOCH          = 2026-03-01T23:55:24.188736
MEAN_MOTION    = 14.82158498
ECCENTRICITY   = .0001284
INCLINATION    = 97.8885
RA_OF_ASC_NODE = 249.2778
ARG_OF_PERICENTER = 82.2541
MEAN_ANOMALY   = 277.8818

EPHEMERIS_TYPE = 0
CLASSIFICATION_TYPE = U
NORAD_CAT_ID   = 43641
ELEMENT_SET_NO = 999
REV_AT_EPOCH   = 40022
BSTAR          = .76505831E-4
MEAN_MOTION_DOT = .557E-5
MEAN_MOTION_DDOT = 0

CCSDS_OMM_VERS = 2.0
CREATION_DATE  = 
ORIGINATOR     = 

OBJECT_NAME    = H-2A R/B
OBJECT_ID      = 2018-084L
CENTER_NAME    = EARTH
REF_FRAME      = TEME
TIME_SYSTEM    = UTC
MEAN_ELEMENT_THEORY = SGP/SGP4

EPOCH          = 2026-03-01T13:14:51.866016
MEAN_MOTION    = 15.40935172
ECCENTRICITY   = .00259849
INCLINATION    = 98.8744
RA_OF_ASC_NODE = 276.2034
ARG_OF_PERICENTER = 52.6987
MEAN_ANOMALY   = 307.6618

EPHEMERIS_TYPE = 0
CLASSIFICATION_TYPE = U
NORAD_CAT_ID   = 43682
ELEMENT_SET_NO = 999
REV_AT_EPOCH   = 40452
BSTAR          = .57506839E-3
MEAN_MOTION_DOT = .23881E-3
MEAN_MOTION_DDOT = 0

CCSDS_OMM_VERS = 2.0
CREATION_DATE  = 
ORIGINATOR     = 

OBJECT_NAME    = SAOCOM 1B
OBJECT_ID      = 2020-059A
CENTER_NAME    = EARTH
REF_FRAME      = TEME
TIME_SYSTEM    = UTC
MEAN_ELEMENT_THEORY = SGP/SGP4

EPOCH          = 2026-03-01T23:03:09.234720
MEAN_MOTION    = 14.82165254
ECCENTRICITY   = .0001517
INCLINATION    = 97.8885
RA_OF_ASC_NODE = 248.3399
ARG_OF_PERICENTER = 82.0694
MEAN_ANOMALY   = 278.0691

EPHEMERIS_TYPE = 0
CLASSIFICATION_TYPE = U
NORAD_CAT_ID   = 46265
ELEMENT_SET_NO = 999
REV_AT_EPOCH   = 29760
BSTAR          = .1428219E-3
MEAN_MOTION_DOT = .1085E-4
MEAN_MOTION_DDOT = 0

CCSDS_OMM_VERS = 2.0
CREATION_DATE  = 
ORIGINATOR     = 

OBJECT_NAME    = CSS (TIANHE)
OBJECT_ID      = 2021-035A
CENTER_NAME    = EARTH
REF_FRAME      = TEME
TIME_SYSTEM    = UTC
MEAN_ELEMENT_THEORY = SGP/SGP4

EPOCH          = 2026-03-01T21:46:51.717792
MEAN_MOTION    = 15.60283539
ECCENTRICITY   = .00064735
INCLINATION    = 41.4652
RA_OF_ASC_NODE = 255.4998
ARG_OF_PERICENTER = 224.5901
MEAN_ANOMALY   = 135.4417

EPHEMERIS_TYPE = 0
CLASSIFICATION_TYPE = U
NORAD_CAT_ID   = 48274
ELEMENT_SET_NO = 999
REV_AT_EPOCH   = 27639
BSTAR          = .20804601E-3
MEAN_MOTION_DOT = .17207E-3
MEAN_MOTION_DDOT = 0

CCSDS_OMM_VERS = 2.0
CREATION_DATE  = 
ORIGINATOR     = 

OBJECT_NAME    = COSMOS 2550
OBJECT_ID      = 2021-056A
CENTER_NAME    = EARTH
REF_FRAME      = TEME
TIME_SYSTEM    = UTC
MEAN_ELEMENT_THEORY = SGP/SGP4

EPOCH          = 2026-03-01T07:13:41.399040
MEAN_MOTION    = 15.33838856
ECCENTRICITY   = .00083278
INCLINATION    = 67.1423
RA_OF_ASC_NODE = 66.3057
ARG_OF_PERICENTER = 269.3233
MEAN_ANOMALY   = 90.6967

EPHEMERIS_TYPE = 0
CLASSIFICATION_TYPE = U
NORAD_CAT_ID   = 48865
ELEMENT_SET_NO = 999
REV_AT_EPOCH   = 26217
BSTAR          = .474334E-6
MEAN_MOTION_DOT = -.176E-5
MEAN_MOTION_DDOT = 0

CCSDS_OMM_VERS = 2.0
CREATION_DATE  = 
ORIGINATOR     = 

OBJECT_NAME    = CZ-2C R/B
OBJECT_ID      = 2022-058K
CENTER_NAME    = EARTH
REF_FRAME      = TEME
TIME_SYSTEM    = UTC
MEAN_ELEMENT_THEORY = SGP/SGP4

EPOCH          = 2026-03-01T20:38:22.486272
MEAN_MOTION    = 15.53580560
ECCENTRICITY   = .00421698
INCLINATION    = 50.1901
RA_OF_ASC_NODE = 358.5453
ARG_OF_PERICENTER = 167.3831
MEAN_ANOMALY   = 192.8205

EPHEMERIS_TYPE = 0
CLASSIFICATION_TYPE = U
NORAD_CAT_ID   = 52794
ELEMENT_SET_NO = 999
REV_AT_EPOCH   = 20891
BSTAR          = .47299316E-3
MEAN_MOTION_DOT = .31563E-3
MEAN_MOTION_DDOT = 0

CCSDS_OMM_VERS = 2.0
CREATION_DATE  = 
ORIGINATOR     = 

OBJECT_NAME    = CZ-2C R/B
OBJECT_ID      = 2022-132E
CENTER_NAME    = EARTH
REF_FRAME      = TEME
TIME_SYSTEM    = UTC
MEAN_ELEMENT_THEORY = SGP/SGP4

EPOCH          = 2026-03-01T22:30:16.301952
MEAN_MOTION    = 15.61068395
ECCENTRICITY   = .00206708
INCLINATION    = 97.2958
RA_OF_ASC_NODE = 64.0238
ARG_OF_PERICENTER = 115.8746
MEAN_ANOMALY   = 244.4646

EPHEMERIS_TYPE = 0
CLASSIFICATION_TYPE = U
NORAD_CAT_ID   = 54039
ELEMENT_SET_NO = 999
REV_AT_EPOCH   = 18916
BSTAR          = .54504172E-3
MEAN_MOTION_DOT = .46402E-3
MEAN_MOTION_DDOT = 0

