SL-4 R/B                
1 39679U 14021B   26060.90185819  .00017134  00000+0  37972-3 0  9993
2 39679  51.6075  15.2619 0098250  74.6002 286.5811 15.38870760655076
ALOS-2                  
1 39766U 14029A   26060.94111699  .00001308  00000+0  18206-3 0  9992
2 39766  97.9200 159.6503 0001460  95.1304 265.0074 14.79463522635722
YAOGAN-29               
1 41038U 15069A   26060.96768541  .00000705  00000+0  93500-4 0  9999
2 41038  98.0158  89.3763 0002324  49.5778 310.5637 14.82985221554737
ASTRO-H (HITOMI)        
1 41337U 16012A   26060.96602029  .00003927  00000+0  23031-3 0  9998
2 41337  31.0002  46.3865 0010025 254.4605 105.4927 15.09936999551067
HXMT (HUIYAN)           
1 42758U 17034A   26061.01027245  .00006039  00000+0  30492-3 0  9995
2 42758  43.0148  59.3630 0032038 188.6062 171.4240 15.17343726481372
SAOCOM 1A               
1 43641U 18076A   26060.99680774  .00000557  00000+0  76506-4 0  9998
2 43641  97.8885 249.2778 0001284  82.2541 277.8818 14.82158498400220
H-2A R/B                
1 43682U 18084L   26060.55198919  .00023881  00000+0  57507-3 0  9993
2 43682  98.8744 276.2034 0025984  52.6987 307.6618 15.40935172404527
SAOCOM 1B               
1 46265U 20059A   26060.96052355  .00001085  00000+0  14282-3 0  9991
2 46265  97.8885 248.3399 0001517  82.0694 278.0691 14.82165254297606
CSS (TIANHE)            
1 48274U 21035A   26060.90754303  .00017207  00000+0  20805-3 0  9995
2 48274  41.4652 255.4998 0006473 224.5901 135.4417 15.60283539276398
COSMOS 2550             
1 48865U 21056A   26060.30117360 -.00000176  00000+0  47433-6 0  9991
2 48865  67.1423  66.3057 0008327 269.3233  90.6967 15.33838856262176
CZ-2C R/B               
1 52794U 22058K   26060.85998248  .00031563  00000+0  47299-3 0  9992
2 52794  50.1901 358.5453 0042169 167.3831 192.8205 15.53580560208914
CZ-2C R/B               
1 54039U 22132E   26060.93768868  .00046402  00000+0  54504-3 0  9996
2 54039  97.2958  64.0238 0020670 115.8746 244.4646 15.61068395189162
